# Made by eph2tle, compiled Jan  4 2022 21:43:10
# Run at Sat Jan 29 12:53:53 2022
#
#    The following TLEs (Two-Line Elements) were generated by fitting
# a numerically-integrated ephemeris,  based on the orbit given below,
# to the SDP4/SGP4 models.  Each TLE is good for the interval between
# its epoch and the epoch of the subsequent TLE (usually one day).
# The maximum deviation between the numerically integrated ephemerides
# and the TLE-based ephemeris, in kilometers,  is given for each TLE
# as the "worst residual".
#
#    This fitting is done using the 'eph2tle' code packaged with Find_Orb.
# The code has details on how the TLEs were computed :
#
#    https://github.com/Bill-Gray/find_orb/eph2tle.cpp
#
#    Be warned:  the error given is that between the numerically
# integrated ephems and the TLE model.  There will usually be at
# least some additional difference between the ephems and the actual
# motion of the satellite,  especially if the ephemerides are based
# on a short arc.  If the following orbital elements say something
# like "[based on] 10 observations 2015 Jan. 1-13",  and the TLEs
# are for 2015 May,  the extrapolation may be tenuous at best.  If
# your application requires a specific level of accuracy,  you may
# want to contact me;  I can give you some idea as to the fit of the
# underlying data (and possibly TLEs based on newer data).
#
#   You can usually find the underlying observational data,  and the
# fitted orbit,  residuals,  ephemerides,  and sometimes some comments
# about the object,  among the pages listed at
#
#    https://www.projectpluto.com/pluto/mpecs/pseudo.htm
#
#    WARNING:  for this object,  "normal" TLEs cannot be fitted.  (This
# usually means an object with an hyperbolic or nearly-parabolic orbit.)
# For this and similar cases,   an alternative model is used,  in which
# most of the traditional TLE data is replaced by six signed 8-digit hex
# numbers.  These six numbers are a state vector,  numerically integrated
# using a simplified force model.  This is necessary for objects at L2 or
# L1,  and sometimes for objects in high orbits where the SDP4/SGP4 model
# fails.  Some documentation is in 'get_el.cpp' in the source code at
# https://www.github.com/Bill-Gray/sat_code ; look for 'hex' in that file,
# with the actual integration done in 'sdp4.cpp'.  But be aware:  it's my
# own extension,  doesn't work with other code,  and is therefore used
# only when necessary.
#
#    Also,  if you use a TLE outside the "correct" time range (between
# its MJD and that of the next TLE),  all bets are off.  I've carefully
# computed and minimized the worst error over the "correct" time frame,
# but the ephemeris may (or may not) diverge wildly outside of it.
#
# Ephem range: 59580.000000 59642.000000 1.000000
# Created Sat Jan 29 12:46:16 2022
# Ephemeris start:  1 Jan 2022  0:00:00
# Ephemeris end:    4 Mar 2022  0:00:00
# Times are all TDT
# Positions/velocities are in equatorial J2000
# Orbital elements:  WE0913A = DSCOVR object = 2015-007B = NORAD 40391
#    Perigee 2021 Dec 10.6458235 +/- 8.8e-6 TT = 15:29:59.14 (JD 2459559.1458235)
# A1: 2.93e-9 +/- 1.43e-11   A2: -2.32e-10 +/- 1.14e-11
# A3: 2.55e-10 +/- 1.4e-11 AU/day^2 [1/r^2]
# Epoch 2021 Dec 11.0 TT = JDT 2459559.5                        Find_Orb
# M   5.5250702286 +/- 0.00014        (J2000 equator)
# n  15.5997639979 +/- 6.76e-6        Peri.   86.4453081 +/- 0.00007
# a342392.95547 +/- 0.0989            Node   118.2526730 +/- 0.00006
# e   0.546523302 +/- 7.72e-7         Incl.   33.1898527 +/- 0.000053
# P  23.08d                  H 26.4   G  0.15   U  4.8
# q 155267.22653 +/- 0.243    Q 529518.68441 +/- 0.371
# 174 of 189 observations 2021 Nov. 7-2022 Jan. 20; mean residual 0".800
#
# 1 NoradU COSPAR   Epoch.epoch     dn/dt/2  d2n/dt2/6 BSTAR    T El# C
# 2 NoradU Inclina RAAscNode Eccent  ArgPeri MeanAno  MeanMotion Rev# C

# Worst residual: 0.31 km
# MJD 59580.000000 (2022 Jan  1  0:00)
WE0913A = DSCOVR object = 2015-007B = NORAD 40391
1 40391U 15007B   21365.99919926 -0026OUL5 +000LWXRZ +00142X10H 14908
2 40391                          +0001588C -000BFR4Y +00032VNV     01

# Worst residual: 0.26 km
# MJD 59581.000000 (2022 Jan  2  0:00)
WE0913A = DSCOVR object = 2015-007B = NORAD 40391
1 40391U 15007B   22001.99919926 -001076HW -001ZD6HO +0019AD0VH 14907
2 40391                          +0007X294 -0008JZBV -0001XVL6     08

# Worst residual: 0.73 km
# MJD 59582.000000 (2022 Jan  3  0:00)
WE0913A = DSCOVR object = 2015-007B = NORAD 40391
1 40391U 15007B   22002.99919926 +00111U98 -0039SZKK +000GH3G3H 14904
2 40391                          +0008986G -0002MM8Y -00044CZ7     07

# Worst residual: 10.08 km
# MJD 59583.000000 (2022 Jan  4  0:00)
WE0913A = DSCOVR object = 2015-007B = NORAD 40391
1 40391U 15007B   22003.99919926 +002TCA3C -003HG6LF -000K4MBEH 14906
2 40391                          +0006KWYD +0000GW7F -00047LLD     04

# Worst residual: 1373.70 km
# MJD 59584.000000 (2022 Jan  5  0:00)
WE0913A = DSCOVR object = 2015-007B = NORAD 40391
1 40391U 15007B   22004.99919926 +00478S7D -0036LFZK -001JMW6EH 14901
2 40391                          +00051AKQ +0001SHPA -00042WKI     03

# Worst residual: 51.97 km
# MJD 59585.000000 (2022 Jan  6  0:00)
WE0913A = DSCOVR object = 2015-007B = NORAD 40391
1 40391U 15007B   22005.99919926 +005EIR8B -00338JXT -002ASAJRH 14909
2 40391                          +0004VUDS -00009E0N -00011KO6     02

# Worst residual: 5.05 km
# MJD 59586.000000 (2022 Jan  7  0:00)
WE0913A = DSCOVR object = 2015-007B = NORAD 40391
1 40391U 15007B   22006.99919926 +006G2Z8A -0031KDUZ -002GDUE8H 14901
2 40391                          +0003V13T +0000IRGR -0000DO6V     03

# Worst residual: 1.94 km
# MJD 59587.000000 (2022 Jan  8  0:00)
WE0913A = DSCOVR object = 2015-007B = NORAD 40391
1 40391U 15007B   22007.99919926 +0079SC3K -002V7EHI -002I4NL4H 14900
2 40391                          +000318J7 +0000X5J8 -00001M5Q     08

# Worst residual: 1.19 km
# MJD 59588.000000 (2022 Jan  9  0:00)
WE0913A = DSCOVR object = 2015-007B = NORAD 40391
1 40391U 15007B   22008.99919926 +007WS0SA -002M0LOU -002HEDTMH 14904
2 40391                          +0002ARH6 +00016V49 +00007CEM     04

# Worst residual: 0.94 km
# MJD 59589.000000 (2022 Jan 10  0:00)
WE0913A = DSCOVR object = 2015-007B = NORAD 40391
1 40391U 15007B   22009.99919926 +008DNUBJ -002AU9RK -002EQEZ0H 14905
2 40391                          +0001M5VR +0001DWV4 +0000ENOJ     00

# Worst residual: 0.75 km
# MJD 59590.000000 (2022 Jan 11  0:00)
WE0913A = DSCOVR object = 2015-007B = NORAD 40391
1 40391U 15007B   22010.99919926 +008ORVWO -001Y7878 -002AG235H 14907
2 40391                          +0000YJGH +0001J5ZU +0000KXL3     08

# Worst residual: 0.59 km
# MJD 59591.000000 (2022 Jan 12  0:00)
WE0913A = DSCOVR object = 2015-007B = NORAD 40391
1 40391U 15007B   22011.99919926 +008U9IQW -001KGTNV -0024QOLQH 14901
2 40391                          +0000B79I +0001N2U4 +0000QIF8     00

# Worst residual: 0.48 km
# MJD 59592.000000 (2022 Jan 13  0:00)
WE0913A = DSCOVR object = 2015-007B = NORAD 40391
1 40391U 15007B   22012.99919926 +008U4FK5 -0015XHCQ -001XRAC0H 14902
2 40391                          -0000CHT9 +0001PW54 +0000VM7J     06

# Worst residual: 0.43 km
# MJD 59593.000000 (2022 Jan 14  0:00)
WE0913A = DSCOVR object = 2015-007B = NORAD 40391
1 40391U 15007B   22013.99919926 +008O6KLD -000QU5UJ -001PL8IWH 14907
2 40391                          -0001194W +0001RPJ3 +00010EPA     00

# Worst residual: 0.44 km
# MJD 59594.000000 (2022 Jan 15  0:00)
WE0913A = DSCOVR object = 2015-007B = NORAD 40391
1 40391U 15007B   22014.99919926 +008C32OI -000BFJCE -001GAOXDH 14904
2 40391                          -0001RZ46 +0001SHNJ +000150B0     08

# Worst residual: 0.47 km
# MJD 59595.000000 (2022 Jan 16  0:00)
WE0913A = DSCOVR object = 2015-007B = NORAD 40391
1 40391U 15007B   22015.99919926 +007T7PIL +00040MIE -0015WVXPH 14904
2 40391                          -0002LZ6J +0001S04C +00019IBP     03

# Worst residual: 0.45 km
# MJD 59596.000000 (2022 Jan 17  0:00)
WE0913A = DSCOVR object = 2015-007B = NORAD 40391
1 40391U 15007B   22016.99919926 +0072JJPY +000J53TK -000UGFWXH 14908
2 40391                          -0003LGG1 +0001PMR3 +0001DYBC     09

# Worst residual: 0.46 km
# MJD 59597.000000 (2022 Jan 18  0:00)
WE0913A = DSCOVR object = 2015-007B = NORAD 40391
1 40391U 15007B   22017.99919926 +0062B4GI +000XBVVP -000HY42KH 14900
2 40391                          -0004UO8J +0001JSDV +0001I8G6     08

# Worst residual: 0.49 km
# MJD 59598.000000 (2022 Jan 19  0:00)
WE0913A = DSCOVR object = 2015-007B = NORAD 40391
1 40391U 15007B   22018.99919926 +004P5GA2 +0019A2UN -0004HQN4H 14904
2 40391                          -0006NU0Z +00015JVZ +0001LK7O     00

# Worst residual: 0.32 km
# MJD 59599.000000 (2022 Jan 20  0:00)
WE0913A = DSCOVR object = 2015-007B = NORAD 40391
1 40391U 15007B   22019.99919926 +002R0LT7 +001EXLOC +0009756XH 14900
2 40391                          -000A0XSB -00005KZ6 +0001HOKA     03

# Worst residual: 10.51 km
# MJD 59600.000000 (2022 Jan 21  0:00)
WE0913A = DSCOVR object = 2015-007B = NORAD 40391
1 40391U 15007B   22020.99919926 -000J2DXX +0001DY1B +0003NEI9H 14902
2 40391                          -0005IVM7 -000PKB14 -000BIOBQ     09

# Worst residual: 0.17 km
# MJD 59601.000000 (2022 Jan 22  0:00)
WE0913A = DSCOVR object = 2015-007B = NORAD 40391
1 40391U 15007B   22021.99919926 +001S28CK -0027HQ02 -001CI3YMH 14904
2 40391                          +0008YX4Y -0003EA0V -00031M7Z     07

# Worst residual: 0.17 km
# MJD 59602.000000 (2022 Jan 23  0:00)
WE0913A = DSCOVR object = 2015-007B = NORAD 40391
1 40391U 15007B   22022.99919926 +003MHW3U -002PDLAU -001VIROVH 14908
2 40391                          +0006NFEC -00015TM3 -0001LIOH     07

